"","Subbasin_ID","OBJECTID.x","GEOMETRY","GNIS_NAME","AREA_HA","GEOMETRY_Length","GEOMETRY_Area","SubBasin_name","Downstream_ID","Reports_to_Fan","Reservoir_name","Hydrometric_stn","Snow_Pillow","Snow_Course","LONGITUDE","SHAPE","OBJECTID.y","ANNO_CAD","SNWMSS_ID","LCTN_ID","LCTN_NM","ELEVATION","STATUS","LATITUDE","X","Y","HRU"
"1",105,5,"Polygon","Whiteman Creek",20254.67888,36007.07667,44487128.97,"Whiteman Creek105",108,"<Null>","<Null>","<Null>","<Null>","2F21",-119.64389,NA,213969,NA,155,"2F21","Bouleau Lake",1400,"Active",50.27111,1452389.691,604267.489000001,2891
"2",201,37,"Polygon","Mission Creek",84512.96957,61389.2321,115360694.4,"Mission Creek201",234,"<Null>","<Null>","08NM225","<Null>","2F22",-119.18595,NA,214157,NA,343,"2F22","Pearson Creek",940,"Inactive",49.940994,1488414.507,570745.346999997,7977
"3",209,45,"Polygon","Mission Creek",84512.96957,39609.99458,45229729.81,"Mission Creek209",217,"<Null>","<Null>","<Null>","<Null>","2F03",-119.18638,NA,213890,NA,76,"2F03","McCulloch",1280,"Active",49.79639,1489929.412,554735.507000003,13102
"4",232,68,"Polygon","Mission Creek",84512.96957,106644.0946,229093296.8,"Mission Creek232",234,"<Null>","<Null>","<Null>","2F05P","2F04",-118.88111,NA,213891,NA,77,"2F04","Graystoke Lake",1840,"Active",49.99972,1509537.447,579394.227,8043
"5",232,68,"Polygon","Mission Creek",84512.96957,106644.0946,229093296.8,"Mission Creek232",234,"<Null>","<Null>","<Null>","2F05P","2F04",-119.01201,NA,214137,NA,323,"2F05","Mission Creek",1780,"Inactive",49.979775,1500417.241,576252.958999994,8563
"6",1506,112,"Polygon","Equesis Creek",0,48738.04057,52559671.93,"Equesis Creek1506",1503,"<Null>","<Null>","08NM176","<Null>","2F06",-119.5576,NA,214087,NA,273,"2F06","Bouleau Creek",1520,"Inactive",50.37596,1457454.128,616441.675999998,518
"7",1918,270,"Polygon","Mill Creek",0,17147.98571,6638386.555,"Mill Creek1918",1917,"<Null>","<Null>","<Null>","<Null>","2F25",-119.20333,NA,213972,NA,158,"2F25","Postill Lake (Upper)",1540,"Active",49.96583,1486908.359,573375.200999998,9283
"8",1920,269,"Polygon","Mill Creek",0,32002.08164,18451733.51,"Mill Creek1920",1919,"<Null>","<Null>","<Null>","<Null>","2F07",-119.20333,NA,213892,NA,78,"2F07","Postill Lake",1370,"Active",49.99972,1486547.011,577127.307,8487
"9",2307,295,"Polygon","Penticton Creek",0,17856.14127,8913060.789,"Penticton Creek2307",2306,"<Null>","<Null>","<Null>","<Null>","2F08",-119.42361,NA,213893,NA,79,"2F08","Greyback Reservoir",1550,"Active",49.61,1474843.962,532488.077999992,16922
"10",2416,131,"Polygon","Powers Creek",0,6967.751386,1189181.945,"Powers Creek2416",2415,"<Null>","<Null>","<Null>","<Null>","2F24",-119.81333,NA,213971,NA,157,"2F24","Islaht Lake",1480,"Active",49.99972,1442996.151,573122.424999991,9403
"11",2707,149,"Polygon","Trepanier Creek",0,33848.62214,32774480.7,"Trepanier Creek2707",2706,"<Null>","<Null>","<Null>","<Null>","2F18",-119.98278,NA,213900,NA,86,"2F18","Brenda Mine",1460,"Inactive",49.864166,1432172.39,557054.859,13164
"12",2707,149,"Polygon","Trepanier Creek",0,33848.62214,32774480.7,"Trepanier Creek2707",2706,"<Null>","<Null>","<Null>","<Null>","2F18",-120.01694,NA,213970,NA,156,"2F23","MacDonald Lake",1740,"Active",49.898056,1429406.278,560602.335999999,12459
"13",2808,159,"Polygon","Trout Creek",0,33794.82855,30835729.85,"Trout Creek2808",2807,"<Null>","<Null>","<Null>","<Null>","2F11",-119.98278,NA,213896,NA,82,"2F11","Isintok Lake",1680,"Active",49.559166,1435051.347,523265.903000001,18875
"14",2824,163,"Polygon","Trout Creek",0,90385.29166,157853957.1,"Trout Creek2824",2823,"<Null>","<Null>","<Null>","<Null>","2F01",-120.1881,NA,213880,NA,66,"2F01","Trout Creek",1430,"Inactive",49.74072,1418585.216,542141.882000002,14976
"15",2824,163,"Polygon","Trout Creek",0,90385.29166,157853957.1,"Trout Creek2824",2823,"<Null>","<Null>","<Null>","<Null>","2F01",-120.16944,NA,213881,NA,67,"2F01A","Trout Creek (West)",1430,"Active",49.745556,1419881.805,542788.267999999,15031
"16",2831,169,"Polygon","Trout Creek",0,20975.86452,8948835.747,"Trout Creek2831",2830,"<Null>","<Null>","<Null>","<Null>","2F02",-120,NA,213882,NA,68,"2F02","Summerland Reservoir",1280,"Active",49.81333,1431417.141,551316.946999994,14746
"17",2904,29,"Polygon","Vaseux Creek",0,49542.56282,78782498.08,"Vaseux Creek2904",2903,"<Null>","<Null>","<Null>","<Null>","2F20",-119.32194,NA,213968,NA,154,"2F20","Vaseux Creek",1400,"Active",49.27111,1485711.143,495678.09,22415
"18",3017,235,"Polygon","Vernon Creek",0,44658.92373,25639949.12,"Vernon Creek3017",3016,"<Null>","Kalamalka","<Null>","<Null>","<Null>",-119.34391,NA,214012,NA,198,"2F16","Carrs Landing (Lower)",690,"Inactive",50.175884,1474673.076,595681.339000002,3874
"19",3026,239,"Polygon","Vernon Creek",0,38856.22501,21430661.72,"Vernon Creek3026",3025,"<Null>","<Null>","<Null>","<Null>","2F19",-119.27111,NA,213967,NA,153,"2F19","Oyama Lake",1340,"Active",50.101666,1480633.33,587952.658000001,5930
"20",3105,31,"Polygon","Shorts Creek",0,49338.84127,64723583.47,"Shorts Creek3105",3102,"<Null>","<Null>","<Null>","<Null>","2F15",-119.71614,NA,214053,NA,239,"2F15","Esperon Cr (Lower)",1340,"Inactive",50.146854,1448486.429,590038.169,5844
